IRIDIUM 113             
1 42803U 17039A   25081.69849601  .00000268  00000+0  88670-4 0  9994
2 42803  86.4014 150.8966 0002527  96.5985 263.5498 14.34213742406474
IRIDIUM 123             
1 42804U 17039B   25081.80975680  .00000101  00000+0  28894-4 0  9993
2 42804  86.4050 182.2689 0002147  92.0267 268.1175 14.34216796405258
IRIDIUM 120             
1 42805U 17039C   25081.62239814  .00000015  00000+0 -18244-5 0  9990
2 42805  86.4004 150.7698 0001805  96.4299 263.7103 14.34216357406459
IRIDIUM 115             
1 42806U 17039D   25081.91347859  .00001189  00000+0  34758-3 0  9990
2 42806  86.4543 150.7151 0002024  78.8494 281.2935 14.43278703409170
IRIDIUM 118             
1 42807U 17039E   25081.77169995  .00000927  00000+0  32380-3 0  9996
2 42807  86.4051 182.2849 0002221  98.0582 262.0866 14.34218386405245
IRIDIUM 117             
1 42808U 17039F   25081.72095608  .00000937  00000+0  32748-3 0  9990
2 42808  86.4047 182.2676 0002090  88.3564 271.7872 14.34215035405269
